#aV2024  5 11  0  0  0.00000000     288 DD+AD WGS84 FIT  NGA
## 2313 518400.00000000   300.00000000 60441 0.0000000000000
+   31     2  3  4  5  6  7  8  9 10 11 12 13 14 15 16 17 18
+         19 20 21 22 23 24 25 26 27 28 29 30 31 32  0  0  0
+          0  0  0  0  0  0  0  0  0  0  0  0  0  0  0  0  0
+          0  0  0  0  0  0  0  0  0  0  0  0  0  0  0  0  0
+          0  0  0  0  0  0  0  0  0  0  0  0  0  0  0  0  0
++         2  2  2  2  2  2  2  2  2  2  2  2  2  2  2  2  2
++         2  2  2  2  2  2  2  2  2  2  2  2  2  2  0  0  0
++         0  0  0  0  0  0  0  0  0  0  0  0  0  0  0  0  0
++         0  0  0  0  0  0  0  0  0  0  0  0  0  0  0  0  0
++         0  0  0  0  0  0  0  0  0  0  0  0  0  0  0  0  0
%c cc cc ccc ccc cccc cccc cccc cccc ccccc ccccc ccccc ccccc
%c cc cc ccc ccc cccc cccc cccc cccc ccccc ccccc ccccc ccccc
%f  0.0000000  0.000000000  0.00000000000  0.000000000000000
%f  0.0000000  0.000000000  0.00000000000  0.000000000000000
%i    0    0    0    0      0      0      0      0         0
%i    0    0    0    0      0      0      0      0         0
/*      NGA, ST. LOUIS,MO.                                  
/*   EPHEMERIS COMPUTED FROM 2 DAYS OF DATA                 
/*   EPOCHA v9 SMOOTHER                                     
/*   G2296 IERS2010 SATIGS SATAPC                           
*  2024  5 11 17 55  0.00000000
P  2  22664.007507  13728.597332   3880.041963   -437.996310                    
V  2   2049.862445   4411.656379 -31214.947263      0.067294                    
P  3  13183.320174   7354.037874  21714.717363    358.126536                    
V  3  -6078.535320  27183.366245  -5356.553888      0.197758                    
P  4  22717.034279   3157.005680  13527.884049    358.822082                    
V  4 -15840.760766   6722.908917  24933.847726      0.084516                    
P  5  -6889.283100 -21028.042762 -14799.916284   -172.340098                    
V  5   4729.158228 -17977.347844  23712.355128     -0.013704                    
P  6   3629.940065 -15600.669678  21224.240726    278.294734                    
V  6  20100.768439  17668.218897   9683.582183     -0.194236                    
P  7  19149.388214   -211.282814 -18082.718905   -126.681312                    
V  7  16753.326180  17092.180380  16600.850096     -0.082105                    
P  8  15321.647249   9361.831676 -19811.424526    172.715761                    
V  8 -22944.903679   9515.313034 -12900.349338      0.206397                    
P  9  25416.622091  -7496.381075   2106.422819    192.623615                    
V  9  -1647.445225   3619.732780  31510.883914      0.140426                    
P 10 -10544.185311  22552.179011  -8572.321204    -21.463647                    
V 10    143.695090 -11456.516608 -29913.052613     -0.063047                    
P 11  -8392.546209 -21327.200778  13489.974497   -659.627996                    
V 11  13596.597936  10507.248715  25060.618213     -0.094544                    
P 12 -12384.630321  -9948.316266  21011.176416   -504.460592                    
V 12   8044.465871 -26122.528688  -7474.354726     -0.033360                    
P 13  -6067.937845 -14120.222540 -21887.554279    649.714903                    
V 13  26785.521712  -4996.348283  -4014.908212      0.029206                    
P 14  13278.933180 -19647.660018 -11715.980978    398.256279                    
V 14   -594.050817  15300.506260 -26466.560198      0.093330                    
P 15 -16245.784100  -8215.269611 -19897.702989    157.937496                    
V 15  21043.847856 -12085.395573 -12310.943978      0.041051                    
P 16   2125.439651  23259.525366 -12546.783294   -294.275852                    
V 16  -6879.608848  14188.944626  26269.553753      0.098795                    
P 17  20390.722381 -13320.959888  11201.547010    707.105442                    
V 17  13584.897502  -1526.254689 -27425.483913     -0.029605                    
P 18 -18210.930334   1030.180727 -19363.283545   -609.029408                    
V 18 -17266.738267 -17428.557638  15112.004063     -0.058872                    
P 19  12499.586688 -15075.127990  17576.195818    480.639784                    
V 19  22674.625336  -3064.935092 -18940.268362      0.053381                    
P 20  -2174.892645 -26216.575576  -4152.638291    376.951099                    
V 20   3018.846128  -5244.243036  30920.817352     -0.013862                    
P 21  21180.677108  16845.220897  -1288.853408    122.214517                    
V 21  -2865.047898    295.529411 -31056.969608     -0.022511                    
P 22  10017.594177 -24451.533814  -3526.268630    -12.196094                    
V 22    999.032927   5486.285337 -31171.457876     -0.053305                    
P 23 -14606.452310  12723.235134 -18058.897311    222.917538                    
V 23   2693.631152 -22889.735224 -18469.956490      0.094469                    
P 24 -21853.073234 -15454.627179    639.400526   -468.648539                    
V 24    922.179973  -3445.521522 -30866.002405     -0.036018                    
P 25 -15549.122470    981.839604  21143.756330    495.535397                    
V 25   4577.351024 -27343.493176   4819.988740      0.006798                    
P 26  -4014.168157  26027.738153    959.077790    154.342882                    
V 26  -3852.871378  -1913.062657  31299.943210     -0.055533                    
P 27   3134.214784  15059.820509 -21919.492880    -23.480938                    
V 27 -25860.666529   8331.523999   2472.426521     -0.018812                    
P 28  -5847.979628  14589.958768  21397.943372   -239.729981                    
V 28 -21190.157880 -17056.832075   5832.753815     -0.161480                    
P 29 -26027.968794   3294.855001   4461.185099   -598.803868                    
V 29   4978.139859  -3645.979569  31246.666120      0.014015                    
P 30  11375.430241 -10864.617386 -21261.893368   -391.952584                    
V 30  20399.194161  18343.935052   1261.648357      0.058365                    
P 31   3958.725248  19907.271287  16707.434651   -227.853053                    
V 31 -17436.183583 -13265.477997  20075.527445      0.001138                    
P 32 -17504.043024  15377.482339  12775.450939   -618.316324                    
V 32 -15865.387902   2914.875208 -25868.414134      0.002547                    
EOF
